start=new Date('2022-05-12T00:00:00.000Z').valueOf();
sats=[{"SITE":"AFETR","TLE_LINE1":"1 46083U 20055BJ  22131.38951772  .00000434  00000-0  48022-4 0  9995","INCLINATION":"53.0543","ELEMENT_SET_NO":"999","LAUNCH_DATE":"2020-08-07","FILE":"3440740","COUNTRY_CODE":"US","SEMIMAJOR_AXIS":"6925.382","BSTAR":"0.00004802200000","EPOCH":"2022-05-11T09:20:54.331008","ARG_OF_PERICENTER":"64.3934","TLE_LINE2":"2 46083  53.0543 253.8205 0001456  64.3934 295.7205 15.06389173 98542","CENTER_NAME":"EARTH","OBJECT_ID":"2020-055BJ","MEAN_MOTION_DOT":"0.00000434","PERIOD":"95.593","OBJECT_TYPE":"PAYLOAD","OBJECT_NAME":"STARLINK-1579","APOAPSIS":"548.255","GP_ID":"203273983","TIME_SYSTEM":"UTC","MEAN_MOTION_DDOT":"0.0000000000000","REF_FRAME":"TEME","ECCENTRICITY":"0.00014560","EPHEMERIS_TYPE":"0","DECAY_DATE":null,"PERIAPSIS":"546.238","MEAN_ELEMENT_THEORY":"SGP4","RA_OF_ASC_NODE":"253.8205","REV_AT_EPOCH":"9854","RCS_SIZE":"LARGE","CLASSIFICATION_TYPE":"U","NORAD_CAT_ID":"46083","MEAN_MOTION":"15.06389173","MEAN_ANOMALY":"295.7205"},{"DECAY_DATE":null,"EPHEMERIS_TYPE":"0","REF_FRAME":"TEME","ECCENTRICITY":"0.00019010","TIME_SYSTEM":"UTC","MEAN_MOTION_DDOT":"0.0000000000000","MEAN_MOTION":"15.06394881","MEAN_ANOMALY":"310.2254","NORAD_CAT_ID":"46117","CLASSIFICATION_TYPE":"U","RA_OF_ASC_NODE":"91.5905","RCS_SIZE":"LARGE","REV_AT_EPOCH":"9566","PERIAPSIS":"545.913","MEAN_ELEMENT_THEORY":"SGP4","ARG_OF_PERICENTER":"49.8902","EPOCH":"2022-05-11T21:17:26.369664","BSTAR":"-0.00002729900000","LAUNCH_DATE":"2020-08-18","FILE":"3441154","SEMIMAJOR_AXIS":"6925.364","COUNTRY_CODE":"US","ELEMENT_SET_NO":"999","SITE":"AFETR","TLE_LINE1":"1 46117U 20057A   22131.88711076 -.00000688  00000-0 -27299-4 0  9997","INCLINATION":"53.0559","APOAPSIS":"548.546","GP_ID":"203308021","OBJECT_NAME":"STARLINK-1585","PERIOD":"95.592","OBJECT_TYPE":"PAYLOAD","MEAN_MOTION_DOT":"-0.00000688","OBJECT_ID":"2020-057A","TLE_LINE2":"2 46117  53.0559  91.5905 0001901  49.8902 310.2254 15.06394881 95668","CENTER_NAME":"EARTH"},{"MEAN_MOTION_DDOT":"0.0000000000000","TIME_SYSTEM":"UTC","ECCENTRICITY":"0.00019930","REF_FRAME":"TEME","DECAY_DATE":null,"EPHEMERIS_TYPE":"0","MEAN_ELEMENT_THEORY":"SGP4","PERIAPSIS":"545.844","RCS_SIZE":"LARGE","REV_AT_EPOCH":"9658","RA_OF_ASC_NODE":"113.9305","MEAN_MOTION":"15.06396487","MEAN_ANOMALY":"313.4906","CLASSIFICATION_TYPE":"U","NORAD_CAT_ID":"46118","TLE_LINE1":"1 46118U 20057B   22131.36555039 -.00002071  00000-0 -12015-3 0  9993","INCLINATION":"53.0542","SITE":"AFETR","ELEMENT_SET_NO":"999","SEMIMAJOR_AXIS":"6925.359","COUNTRY_CODE":"US","LAUNCH_DATE":"2020-08-18","FILE":"3440740","ARG_OF_PERICENTER":"46.6249","EPOCH":"2022-05-11T08:46:23.553696","BSTAR":"-0.00012015000000","MEAN_MOTION_DOT":"-0.00002071","TLE_LINE2":"2 46118  53.0542 113.9305 0001993  46.6249 313.4906 15.06396487 96589","OBJECT_ID":"2020-057B","CENTER_NAME":"EARTH","OBJECT_TYPE":"PAYLOAD","PERIOD":"95.592","OBJECT_NAME":"STARLINK-1588","GP_ID":"203274226","APOAPSIS":"548.605"},{"PERIOD":"95.592","OBJECT_TYPE":"PAYLOAD","MEAN_MOTION_DOT":"0.00000101","CENTER_NAME":"EARTH","TLE_LINE2":"2 46119  53.0537 112.5045 0002176  56.3957 303.7240 15.06395075 96617","OBJECT_ID":"2020-057C","APOAPSIS":"548.736","GP_ID":"203306520","OBJECT_NAME":"STARLINK-1593","ELEMENT_SET_NO":"999","SITE":"AFETR","TLE_LINE1":"1 46119U 20057C   22131.68622908  .00000101  00000-0  25710-4 0  9996","INCLINATION":"53.0537","ARG_OF_PERICENTER":"56.3957","EPOCH":"2022-05-11T16:28:10.192512","BSTAR":"0.00002571000000","FILE":"3441154","LAUNCH_DATE":"2020-08-18","SEMIMAJOR_AXIS":"6925.364","COUNTRY_CODE":"US","RA_OF_ASC_NODE":"112.5045","RCS_SIZE":"LARGE","REV_AT_EPOCH":"9661","PERIAPSIS":"545.722","MEAN_ELEMENT_THEORY":"SGP4","MEAN_ANOMALY":"303.7240","MEAN_MOTION":"15.06395075","CLASSIFICATION_TYPE":"U","NORAD_CAT_ID":"46119","TIME_SYSTEM":"UTC","MEAN_MOTION_DDOT":"0.0000000000000","DECAY_DATE":null,"EPHEMERIS_TYPE":"0","REF_FRAME":"TEME","ECCENTRICITY":"0.00021760"},{"MEAN_MOTION_DDOT":"0.0000000000000","TIME_SYSTEM":"UTC","ECCENTRICITY":"0.00021560","REF_FRAME":"TEME","EPHEMERIS_TYPE":"0","DECAY_DATE":null,"PERIAPSIS":"545.749","MEAN_ELEMENT_THEORY":"SGP4","REV_AT_EPOCH":"9658","RCS_SIZE":"LARGE","RA_OF_ASC_NODE":"114.0589","NORAD_CAT_ID":"46120","CLASSIFICATION_TYPE":"U","MEAN_MOTION":"15.06390691","MEAN_ANOMALY":"316.1501","INCLINATION":"53.0546","TLE_LINE1":"1 46120U 20057D   22131.33977848  .00001693  00000-0  13258-3 0  9996","SITE":"AFETR","ELEMENT_SET_NO":"999","COUNTRY_CODE":"US","SEMIMAJOR_AXIS":"6925.377","LAUNCH_DATE":"2020-08-18","FILE":"3440740","BSTAR":"0.00013258000000","EPOCH":"2022-05-11T08:09:16.860672","ARG_OF_PERICENTER":"43.9660","OBJECT_ID":"2020-057D","TLE_LINE2":"2 46120  53.0546 114.0589 0002156  43.9660 316.1501 15.06390691 96583","CENTER_NAME":"EARTH","MEAN_MOTION_DOT":"0.00001693","OBJECT_TYPE":"PAYLOAD","PERIOD":"95.593","OBJECT_NAME":"STARLINK-1601","GP_ID":"203273739","APOAPSIS":"548.735"},{"RCS_SIZE":"LARGE","REV_AT_EPOCH":"9623","RA_OF_ASC_NODE":"94.2026","PERIAPSIS":"545.827","MEAN_ELEMENT_THEORY":"SGP4","MEAN_ANOMALY":"309.5011","MEAN_MOTION":"15.06390192","NORAD_CAT_ID":"46121","CLASSIFICATION_TYPE":"U","MEAN_MOTION_DDOT":"0.0000000000000","TIME_SYSTEM":"UTC","DECAY_DATE":null,"EPHEMERIS_TYPE":"0","ECCENTRICITY":"0.00020460","REF_FRAME":"TEME","OBJECT_TYPE":"PAYLOAD","PERIOD":"95.593","MEAN_MOTION_DOT":"-0.00001694","CENTER_NAME":"EARTH","TLE_LINE2":"2 46121  53.0564  94.2026 0002046  50.6159 309.5011 15.06390192 96235","OBJECT_ID":"2020-057E","GP_ID":"203280065","APOAPSIS":"548.661","OBJECT_NAME":"STARLINK-1602","ELEMENT_SET_NO":"999","TLE_LINE1":"1 46121U 20057E   22131.30842260 -.00001694  00000-0 -94876-4 0  9992","INCLINATION":"53.0564","SITE":"AFETR","EPOCH":"2022-05-11T07:24:07.712640","ARG_OF_PERICENTER":"50.6159","BSTAR":"-0.00009487600000","SEMIMAJOR_AXIS":"6925.379","COUNTRY_CODE":"US","LAUNCH_DATE":"2020-08-18","FILE":"3440798"},{"REF_FRAME":"TEME","ECCENTRICITY":"0.00018120","DECAY_DATE":null,"EPHEMERIS_TYPE":"0","TIME_SYSTEM":"UTC","MEAN_MOTION_DDOT":"0.0000000000000","MEAN_MOTION":"15.06401007","MEAN_ANOMALY":"307.8568","CLASSIFICATION_TYPE":"U","NORAD_CAT_ID":"46122","MEAN_ELEMENT_THEORY":"SGP4","PERIAPSIS":"545.956","RA_OF_ASC_NODE":"71.7601","RCS_SIZE":"LARGE","REV_AT_EPOCH":"9719","LAUNCH_DATE":"2020-08-18","FILE":"3441154","SEMIMAJOR_AXIS":"6925.345","COUNTRY_CODE":"US","EPOCH":"2022-05-11T20:21:42.145344","ARG_OF_PERICENTER":"52.2585","BSTAR":"0.00002040700000","SITE":"AFETR","INCLINATION":"53.0555","TLE_LINE1":"1 46122U 20057F   22131.84840446  .00000022  00000-0  20407-4 0  9997","ELEMENT_SET_NO":"999","OBJECT_NAME":"STARLINK-1604","APOAPSIS":"548.465","GP_ID":"203308266","MEAN_MOTION_DOT":"0.00000022","OBJECT_ID":"2020-057F","TLE_LINE2":"2 46122  53.0555  71.7601 0001812  52.2585 307.8568 15.06401007 97198","CENTER_NAME":"EARTH","PERIOD":"95.592","OBJECT_TYPE":"PAYLOAD"},{"ECCENTRICITY":"0.00022030","REF_FRAME":"TEME","DECAY_DATE":null,"EPHEMERIS_TYPE":"0","MEAN_MOTION_DDOT":"0.0000000000000","TIME_SYSTEM":"UTC","MEAN_MOTION":"15.06399280","MEAN_ANOMALY":"312.8543","CLASSIFICATION_TYPE":"U","NORAD_CAT_ID":"46123","PERIAPSIS":"545.690","MEAN_ELEMENT_THEORY":"SGP4","RCS_SIZE":"LARGE","REV_AT_EPOCH":"9721","RA_OF_ASC_NODE":"71.8398","SEMIMAJOR_AXIS":"6925.351","COUNTRY_CODE":"US","FILE":"3441154","LAUNCH_DATE":"2020-08-18","ARG_OF_PERICENTER":"47.2631","EPOCH":"2022-05-11T20:00:28.327680","BSTAR":"-0.00003927500000","INCLINATION":"53.0564","TLE_LINE1":"1 46123U 20057G   22131.83366120 -.00000867  00000-0 -39275-4 0  9991","SITE":"AFETR","ELEMENT_SET_NO":"999","OBJECT_NAME":"STARLINK-1605","GP_ID":"203307021","APOAPSIS":"548.741","MEAN_MOTION_DOT":"-0.00000867","CENTER_NAME":"EARTH","TLE_LINE2":"2 46123  53.0564  71.8398 0002203  47.2631 312.8543 15.06399280 97215","OBJECT_ID":"2020-057G","OBJECT_TYPE":"PAYLOAD","PERIOD":"95.592"},{"EPOCH":"2022-05-11T20:11:05.424864","ARG_OF_PERICENTER":"52.8492","BSTAR":"-0.00004096800000","LAUNCH_DATE":"2020-08-18","FILE":"3441154","SEMIMAJOR_AXIS":"6925.368","COUNTRY_CODE":"US","ELEMENT_SET_NO":"999","SITE":"AFETR","INCLINATION":"53.0551","TLE_LINE1":"1 46124U 20057H   22131.84103501 -.00000892  00000-0 -40968-4 0  9994","APOAPSIS":"548.437","GP_ID":"203306770","OBJECT_NAME":"STARLINK-1614","PERIOD":"95.593","OBJECT_TYPE":"PAYLOAD","MEAN_MOTION_DOT":"-0.00000892","OBJECT_ID":"2020-057H","TLE_LINE2":"2 46124  53.0551  71.8075 0001738  52.8492 307.2655 15.06393666 95945","CENTER_NAME":"EARTH","DECAY_DATE":null,"EPHEMERIS_TYPE":"0","REF_FRAME":"TEME","ECCENTRICITY":"0.00017380","TIME_SYSTEM":"UTC","MEAN_MOTION_DDOT":"0.0000000000000","MEAN_MOTION":"15.06393666","MEAN_ANOMALY":"307.2655","NORAD_CAT_ID":"46124","CLASSIFICATION_TYPE":"U","RA_OF_ASC_NODE":"71.8075","RCS_SIZE":"LARGE","REV_AT_EPOCH":"9594","MEAN_ELEMENT_THEORY":"SGP4","PERIAPSIS":"546.029"},{"ELEMENT_SET_NO":"999","INCLINATION":"53.0556","TLE_LINE1":"1 46125U 20057J   22131.42452906 -.00001413  00000-0 -75974-4 0  9990","SITE":"AFETR","BSTAR":"-0.00007597400000","EPOCH":"2022-05-11T10:11:19.310784","ARG_OF_PERICENTER":"52.7810","COUNTRY_CODE":"US","SEMIMAJOR_AXIS":"6925.372","LAUNCH_DATE":"2020-08-18","FILE":"3440214","OBJECT_TYPE":"PAYLOAD","PERIOD":"95.593","TLE_LINE2":"2 46125  53.0556 113.6722 0002183  52.7810 307.3378 15.06392392 95974","OBJECT_ID":"2020-057J","CENTER_NAME":"EARTH","MEAN_MOTION_DOT":"-0.00001413","GP_ID":"203242623","APOAPSIS":"548.749","OBJECT_NAME":"STARLINK-1618","MEAN_MOTION_DDOT":"0.0000000000000","TIME_SYSTEM":"UTC","EPHEMERIS_TYPE":"0","DECAY_DATE":null,"ECCENTRICITY":"0.00021830","REF_FRAME":"TEME","REV_AT_EPOCH":"9597","RCS_SIZE":"LARGE","RA_OF_ASC_NODE":"113.6722","PERIAPSIS":"545.725","MEAN_ELEMENT_THEORY":"SGP4","CLASSIFICATION_TYPE":"U","NORAD_CAT_ID":"46125","MEAN_ANOMALY":"307.3378","MEAN_MOTION":"15.06392392"}];
